[{"OBJECT_NAME":"TIANPING 2B","OBJECT_ID":"2022-032C","EPOCH":"2026-03-09T22:22:05.849760","MEAN_MOTION":15.01267566,"ECCENTRICITY":0.00208707,"INCLINATION":97.6053,"RA_OF_ASC_NODE":116.3222,"ARG_OF_PERICENTER":130.0797,"MEAN_ANOMALY":230.2261,"EPHEMERIS_TYPE":0,"CLASSIFICATION_TYPE":"U","NORAD_CAT_ID":52155,"ELEMENT_SET_NO":999,"REV_AT_EPOCH":21538,"BSTAR":0.00026542484,"MEAN_MOTION_DOT":3.368e-5,"MEAN_MOTION_DDOT":0},{"OBJECT_NAME":"STARLINK-34515","OBJECT_ID":"2025-142S","EPOCH":"2026-03-09T21:14:59.650368","MEAN_MOTION":14.98337717,"ECCENTRICITY":0.000332,"INCLINATION":70.0014,"RA_OF_ASC_NODE":313.7945,"ARG_OF_PERICENTER":267.4823,"MEAN_ANOMALY":92.5956,"EPHEMERIS_TYPE":0,"CLASSIFICATION_TYPE":"U","NORAD_CAT_ID":64712,"ELEMENT_SET_NO":999,"REV_AT_EPOCH":3949,"BSTAR":0.00023972917,"MEAN_MOTION_DOT":2.769e-5,"MEAN_MOTION_DDOT":0}]
